[{"OBJECT_NAME":"STARLINK-3690","OBJECT_ID":"2022-025J","EPOCH":"2026-03-09T06:36:44.498592","MEAN_MOTION":15.30191903,"ECCENTRICITY":0.00013974,"INCLINATION":53.1606,"RA_OF_ASC_NODE":26.2078,"ARG_OF_PERICENTER":104.7016,"MEAN_ANOMALY":255.4139,"EPHEMERIS_TYPE":0,"CLASSIFICATION_TYPE":"U","NORAD_CAT_ID":51964,"ELEMENT_SET_NO":999,"REV_AT_EPOCH":22095,"BSTAR":9.893093e-6,"MEAN_MOTION_DOT":-6.6e-7,"MEAN_MOTION_DDOT":0},{"OBJECT_NAME":"ION SCV-015","OBJECT_ID":"2023-185H","EPOCH":"2026-03-09T22:36:51.209568","MEAN_MOTION":15.3163624,"ECCENTRICITY":0.00109059,"INCLINATION":97.5772,"RA_OF_ASC_NODE":155.3582,"ARG_OF_PERICENTER":92.3805,"MEAN_ANOMALY":267.8685,"EPHEMERIS_TYPE":0,"CLASSIFICATION_TYPE":"U","NORAD_CAT_ID":58469,"ELEMENT_SET_NO":999,"REV_AT_EPOCH":12588,"BSTAR":0.00030895808,"MEAN_MOTION_DOT":9.376e-5,"MEAN_MOTION_DDOT":0}]
